{
  "type": "FeatureCollection",
  "name": "NER_Landslide_Inventory_Template",
  "crs": { "type": "name", "properties": { "name": "urn:ogc:def:crs:OGC:1.3:CRS84" } },
  "features": [
    {
      "type": "Feature",
      "properties": {
        "event_id": "LS-NER-2024-001",
        "date": "2024-07-12T04:30:00Z",
        "severity": "HIGH",
        "trigger_cause": "MONSOON_TORRENTIAL_RAIN",
        "area_sq_m": 4500.0,
        "depth_m": 3.5,
        "casualties": 2,
        "infrastructure_damage": "ROAD_BLOCKAGE_NH10",
        "state": "Sikkim",
        "district": "East Sikkim",
        "geology_unit": "Daling Group Phyllite",
        "slope_deg": 38.5,
        "validation_status": "VERIFIED_GSI"
      },
      "geometry": {
        "type": "Point",
        "coordinates": [88.6065, 27.3389]
      }
    },
    {
      "type": "Feature",
      "properties": {
        "event_id": "LS-NER-2024-002",
        "date": "2024-07-18T11:15:00Z",
        "severity": "CRITICAL",
        "trigger_cause": "CONTINUOUS_SOIL_SATURATION",
        "area_sq_m": 12000.0,
        "depth_m": 5.2,
        "casualties": 0,
        "infrastructure_damage": "POWER_LINE_COLLAPSE",
        "state": "Meghalaya",
        "district": "East Khasi Hills",
        "geology_unit": "Shillong Group Quartzite",
        "slope_deg": 44.2,
        "validation_status": "VERIFIED_FIELD"
      },
      "geometry": {
        "type": "Point",
        "coordinates": [91.8933, 25.5788]
      }
    }
  ]
}
